[{"OBJECT_NAME":"OPS 5712 (P\/L 153)","OBJECT_ID":"1967-053H","EPOCH":"2026-03-09T22:39:20.284128","MEAN_MOTION":13.96811985,"ECCENTRICITY":0.00092151,"INCLINATION":69.9762,"RA_OF_ASC_NODE":328.0261,"ARG_OF_PERICENTER":309.8134,"MEAN_ANOMALY":50.216,"EPHEMERIS_TYPE":0,"CLASSIFICATION_TYPE":"U","NORAD_CAT_ID":2874,"ELEMENT_SET_NO":999,"REV_AT_EPOCH":99292,"BSTAR":8.3692014e-5,"MEAN_MOTION_DOT":6.3e-7,"MEAN_MOTION_DDOT":0},{"OBJECT_NAME":"FENGYUN 1C DEB","OBJECT_ID":"1999-025CXG","EPOCH":"2026-03-02T05:51:18.882720","MEAN_MOTION":13.66195497,"ECCENTRICITY":0.02280656,"INCLINATION":100.8155,"RA_OF_ASC_NODE":218.5862,"ARG_OF_PERICENTER":279.3903,"MEAN_ANOMALY":78.152,"EPHEMERIS_TYPE":0,"CLASSIFICATION_TYPE":"U","NORAD_CAT_ID":32315,"ELEMENT_SET_NO":999,"REV_AT_EPOCH":62174,"BSTAR":0.00020558485,"MEAN_MOTION_DOT":1.47e-6,"MEAN_MOTION_DDOT":0}]
